<?xml version="1.0" encoding="UTF-8"?>
<ndm xmlns:xsi="http://www.w3.org/2001/XMLSchema-instance" xsi:noNamespaceSchemaLocation="https://sanaregistry.org/r/ndmxml_unqualified/ndmxml-2.0.0-master-2.0.xsd">
<omm id="CCSDS_OMM_VERS" version="2.0">
<header><CREATION_DATE/><ORIGINATOR/></header><body><segment><metadata><OBJECT_NAME>KUIPER-00027</OBJECT_NAME><OBJECT_ID>2025-088S</OBJECT_ID><CENTER_NAME>EARTH</CENTER_NAME><REF_FRAME>TEME</REF_FRAME><TIME_SYSTEM>UTC</TIME_SYSTEM><MEAN_ELEMENT_THEORY>SGP4</MEAN_ELEMENT_THEORY></metadata><data><meanElements><EPOCH>2025-07-22T06:55:39.128448</EPOCH><MEAN_MOTION>15.38040911</MEAN_MOTION><ECCENTRICITY>.0002042</ECCENTRICITY><INCLINATION>51.8724</INCLINATION><RA_OF_ASC_NODE>50.3200</RA_OF_ASC_NODE><ARG_OF_PERICENTER>81.8479</ARG_OF_PERICENTER><MEAN_ANOMALY>278.2740</MEAN_ANOMALY></meanElements><tleParameters><EPHEMERIS_TYPE>0</EPHEMERIS_TYPE><CLASSIFICATION_TYPE>U</CLASSIFICATION_TYPE><NORAD_CAT_ID>63740</NORAD_CAT_ID><ELEMENT_SET_NO>999</ELEMENT_SET_NO><REV_AT_EPOCH>1327</REV_AT_EPOCH><BSTAR>.35465E-3</BSTAR><MEAN_MOTION_DOT>.13114E-3</MEAN_MOTION_DOT><MEAN_MOTION_DDOT>0</MEAN_MOTION_DDOT></tleParameters></data></segment></body></omm>
<omm id="CCSDS_OMM_VERS" version="2.0">
<header><CREATION_DATE/><ORIGINATOR/></header><body><segment><metadata><OBJECT_NAME>KUIPER-00028</OBJECT_NAME><OBJECT_ID>2025-088T</OBJECT_ID><CENTER_NAME>EARTH</CENTER_NAME><REF_FRAME>TEME</REF_FRAME><TIME_SYSTEM>UTC</TIME_SYSTEM><MEAN_ELEMENT_THEORY>SGP4</MEAN_ELEMENT_THEORY></metadata><data><meanElements><EPOCH>2025-07-22T23:52:33.234240</EPOCH><MEAN_MOTION>15.38165803</MEAN_MOTION><ECCENTRICITY>.000184</ECCENTRICITY><INCLINATION>51.8705</INCLINATION><RA_OF_ASC_NODE>46.8009</RA_OF_ASC_NODE><ARG_OF_PERICENTER>68.1175</ARG_OF_PERICENTER><MEAN_ANOMALY>292.0007</MEAN_ANOMALY></meanElements><tleParameters><EPHEMERIS_TYPE>0</EPHEMERIS_TYPE><CLASSIFICATION_TYPE>U</CLASSIFICATION_TYPE><NORAD_CAT_ID>63741</NORAD_CAT_ID><ELEMENT_SET_NO>999</ELEMENT_SET_NO><REV_AT_EPOCH>1379</REV_AT_EPOCH><BSTAR>.44367E-3</BSTAR><MEAN_MOTION_DOT>.16581E-3</MEAN_MOTION_DOT><MEAN_MOTION_DDOT>0</MEAN_MOTION_DDOT></tleParameters></data></segment></body></omm>
<omm id="CCSDS_OMM_VERS" version="2.0">
<header><CREATION_DATE/><ORIGINATOR/></header><body><segment><metadata><OBJECT_NAME>KUIPER-00029</OBJECT_NAME><OBJECT_ID>2025-088U</OBJECT_ID><CENTER_NAME>EARTH</CENTER_NAME><REF_FRAME>TEME</REF_FRAME><TIME_SYSTEM>UTC</TIME_SYSTEM><MEAN_ELEMENT_THEORY>SGP4</MEAN_ELEMENT_THEORY></metadata><data><meanElements><EPOCH>2025-07-22T20:26:01.252032</EPOCH><MEAN_MOTION>15.36925728</MEAN_MOTION><ECCENTRICITY>.0005121</ECCENTRICITY><INCLINATION>51.8690</INCLINATION><RA_OF_ASC_NODE>48.0694</RA_OF_ASC_NODE><ARG_OF_PERICENTER>66.3353</ARG_OF_PERICENTER><MEAN_ANOMALY>293.8170</MEAN_ANOMALY></meanElements><tleParameters><EPHEMERIS_TYPE>0</EPHEMERIS_TYPE><CLASSIFICATION_TYPE>U</CLASSIFICATION_TYPE><NORAD_CAT_ID>63742</NORAD_CAT_ID><ELEMENT_SET_NO>999</ELEMENT_SET_NO><REV_AT_EPOCH>1329</REV_AT_EPOCH><BSTAR>.37364E-3</BSTAR><MEAN_MOTION_DOT>.1334E-3</MEAN_MOTION_DOT><MEAN_MOTION_DDOT>0</MEAN_MOTION_DDOT></tleParameters></data></segment></body></omm>
<omm id="CCSDS_OMM_VERS" version="2.0">
<header><CREATION_DATE/><ORIGINATOR/></header><body><segment><metadata><OBJECT_NAME>KUIPER-00030</OBJECT_NAME><OBJECT_ID>2025-088V</OBJECT_ID><CENTER_NAME>EARTH</CENTER_NAME><REF_FRAME>TEME</REF_FRAME><TIME_SYSTEM>UTC</TIME_SYSTEM><MEAN_ELEMENT_THEORY>SGP4</MEAN_ELEMENT_THEORY></metadata><data><meanElements><EPOCH>2025-07-23T14:00:03.000384</EPOCH><MEAN_MOTION>15.14237878</MEAN_MOTION><ECCENTRICITY>.0012132</ECCENTRICITY><INCLINATION>51.8856</INCLINATION><RA_OF_ASC_NODE>47.7772</RA_OF_ASC_NODE><ARG_OF_PERICENTER>47.2745</ARG_OF_PERICENTER><MEAN_ANOMALY>290.8798</MEAN_ANOMALY></meanElements><tleParameters><EPHEMERIS_TYPE>0</EPHEMERIS_TYPE><CLASSIFICATION_TYPE>U</CLASSIFICATION_TYPE><NORAD_CAT_ID>63743</NORAD_CAT_ID><ELEMENT_SET_NO>999</ELEMENT_SET_NO><REV_AT_EPOCH>1363</REV_AT_EPOCH><BSTAR>-.77218E-1</BSTAR><MEAN_MOTION_DOT>-.1305787E-1</MEAN_MOTION_DOT><MEAN_MOTION_DDOT>0</MEAN_MOTION_DDOT></tleParameters></data></segment></body></omm>
<omm id="CCSDS_OMM_VERS" version="2.0">
<header><CREATION_DATE/><ORIGINATOR/></header><body><segment><metadata><OBJECT_NAME>KUIPER-00031</OBJECT_NAME><OBJECT_ID>2025-088W</OBJECT_ID><CENTER_NAME>EARTH</CENTER_NAME><REF_FRAME>TEME</REF_FRAME><TIME_SYSTEM>UTC</TIME_SYSTEM><MEAN_ELEMENT_THEORY>SGP4</MEAN_ELEMENT_THEORY></metadata><data><meanElements><EPOCH>2025-07-23T06:38:45.646944</EPOCH><MEAN_MOTION>15.37654542</MEAN_MOTION><ECCENTRICITY>.0004233</ECCENTRICITY><INCLINATION>51.8707</INCLINATION><RA_OF_ASC_NODE>45.6814</RA_OF_ASC_NODE><ARG_OF_PERICENTER>63.2524</ARG_OF_PERICENTER><MEAN_ANOMALY>296.8896</MEAN_ANOMALY></meanElements><tleParameters><EPHEMERIS_TYPE>0</EPHEMERIS_TYPE><CLASSIFICATION_TYPE>U</CLASSIFICATION_TYPE><NORAD_CAT_ID>63744</NORAD_CAT_ID><ELEMENT_SET_NO>999</ELEMENT_SET_NO><REV_AT_EPOCH>1336</REV_AT_EPOCH><BSTAR>.40312E-3</BSTAR><MEAN_MOTION_DOT>.14775E-3</MEAN_MOTION_DOT><MEAN_MOTION_DDOT>0</MEAN_MOTION_DDOT></tleParameters></data></segment></body></omm>
<omm id="CCSDS_OMM_VERS" version="2.0">
<header><CREATION_DATE/><ORIGINATOR/></header><body><segment><metadata><OBJECT_NAME>KUIPER-00032</OBJECT_NAME><OBJECT_ID>2025-088X</OBJECT_ID><CENTER_NAME>EARTH</CENTER_NAME><REF_FRAME>TEME</REF_FRAME><TIME_SYSTEM>UTC</TIME_SYSTEM><MEAN_ELEMENT_THEORY>SGP4</MEAN_ELEMENT_THEORY></metadata><data><meanElements><EPOCH>2025-07-22T20:06:40.684032</EPOCH><MEAN_MOTION>15.37401368</MEAN_MOTION><ECCENTRICITY>.0004786</ECCENTRICITY><INCLINATION>51.8692</INCLINATION><RA_OF_ASC_NODE>47.9783</RA_OF_ASC_NODE><ARG_OF_PERICENTER>50.1700</ARG_OF_PERICENTER><MEAN_ANOMALY>309.9707</MEAN_ANOMALY></meanElements><tleParameters><EPHEMERIS_TYPE>0</EPHEMERIS_TYPE><CLASSIFICATION_TYPE>U</CLASSIFICATION_TYPE><NORAD_CAT_ID>63745</NORAD_CAT_ID><ELEMENT_SET_NO>999</ELEMENT_SET_NO><REV_AT_EPOCH>1429</REV_AT_EPOCH><BSTAR>.42015E-3</BSTAR><MEAN_MOTION_DOT>.1529E-3</MEAN_MOTION_DOT><MEAN_MOTION_DDOT>0</MEAN_MOTION_DDOT></tleParameters></data></segment></body></omm>
<omm id="CCSDS_OMM_VERS" version="2.0">
<header><CREATION_DATE/><ORIGINATOR/></header><body><segment><metadata><OBJECT_NAME>KUIPER-00033</OBJECT_NAME><OBJECT_ID>2025-088Y</OBJECT_ID><CENTER_NAME>EARTH</CENTER_NAME><REF_FRAME>TEME</REF_FRAME><TIME_SYSTEM>UTC</TIME_SYSTEM><MEAN_ELEMENT_THEORY>SGP4</MEAN_ELEMENT_THEORY></metadata><data><meanElements><EPOCH>2025-07-22T14:53:26.549088</EPOCH><MEAN_MOTION>14.79784863</MEAN_MOTION><ECCENTRICITY>.0003427</ECCENTRICITY><INCLINATION>51.9020</INCLINATION><RA_OF_ASC_NODE>63.9604</RA_OF_ASC_NODE><ARG_OF_PERICENTER>125.2160</ARG_OF_PERICENTER><MEAN_ANOMALY>234.9124</MEAN_ANOMALY></meanElements><tleParameters><EPHEMERIS_TYPE>0</EPHEMERIS_TYPE><CLASSIFICATION_TYPE>U</CLASSIFICATION_TYPE><NORAD_CAT_ID>63746</NORAD_CAT_ID><ELEMENT_SET_NO>999</ELEMENT_SET_NO><REV_AT_EPOCH>1353</REV_AT_EPOCH><BSTAR>.22728E-3</BSTAR><MEAN_MOTION_DOT>.1505E-4</MEAN_MOTION_DOT><MEAN_MOTION_DDOT>0</MEAN_MOTION_DDOT></tleParameters></data></segment></body></omm>
<omm id="CCSDS_OMM_VERS" version="2.0">
<header><CREATION_DATE/><ORIGINATOR/></header><body><segment><metadata><OBJECT_NAME>KUIPER-00034</OBJECT_NAME><OBJECT_ID>2025-088Z</OBJECT_ID><CENTER_NAME>EARTH</CENTER_NAME><REF_FRAME>TEME</REF_FRAME><TIME_SYSTEM>UTC</TIME_SYSTEM><MEAN_ELEMENT_THEORY>SGP4</MEAN_ELEMENT_THEORY></metadata><data><meanElements><EPOCH>2025-07-23T14:00:06.705216</EPOCH><MEAN_MOTION>15.37795115</MEAN_MOTION><ECCENTRICITY>.0002282</ECCENTRICITY><INCLINATION>51.8717</INCLINATION><RA_OF_ASC_NODE>43.9967</RA_OF_ASC_NODE><ARG_OF_PERICENTER>81.7776</ARG_OF_PERICENTER><MEAN_ANOMALY>278.3469</MEAN_ANOMALY></meanElements><tleParameters><EPHEMERIS_TYPE>0</EPHEMERIS_TYPE><CLASSIFICATION_TYPE>U</CLASSIFICATION_TYPE><NORAD_CAT_ID>63747</NORAD_CAT_ID><ELEMENT_SET_NO>999</ELEMENT_SET_NO><REV_AT_EPOCH>1357</REV_AT_EPOCH><BSTAR>.41146E-3</BSTAR><MEAN_MOTION_DOT>.15158E-3</MEAN_MOTION_DOT><MEAN_MOTION_DDOT>0</MEAN_MOTION_DDOT></tleParameters></data></segment></body></omm>

</ndm>
