KUIPER-00027            
1 63740U 25088S   25203.28864732  .00013114  00000+0  35465-3 0  9990
2 63740  51.8724  50.3200 0002042  81.8479 278.2740 15.38040911 13279
KUIPER-00028            
1 63741U 25088T   25203.99482910  .00016581  00000+0  44367-3 0  9995
2 63741  51.8705  46.8009 0001840  68.1175 292.0007 15.38165803 13797
KUIPER-00029            
1 63742U 25088U   25203.85140338  .00013340  00000+0  37364-3 0  9995
2 63742  51.8690  48.0694 0005121  66.3353 293.8170 15.36925728 13292
KUIPER-00030            
1 63743U 25088V   25204.58336806 -.01305787  00000+0 -77218-1 0  9996
2 63743  51.8856  47.7772 0012132  47.2745 290.8798 15.14237878 13632
KUIPER-00031            
1 63744U 25088W   25204.27691721  .00014775  00000+0  40312-3 0  9991
2 63744  51.8707  45.6814 0004233  63.2524 296.8896 15.37654542 13369
KUIPER-00032            
1 63745U 25088X   25203.83797088  .00015290  00000+0  42015-3 0  9991
2 63745  51.8692  47.9783 0004786  50.1700 309.9707 15.37401368 14293
KUIPER-00033            
1 63746U 25088Y   25203.62044617  .00001505  00000+0  22728-3 0  9995
2 63746  51.9020  63.9604 0003427 125.2160 234.9124 14.79784863 13530
KUIPER-00034            
1 63747U 25088Z   25204.58341094  .00015158  00000+0  41146-3 0  9995
2 63747  51.8717  43.9967 0002282  81.7776 278.3469 15.37795115 13575
